{"type": "FeatureCollection", "features": [ {"type": "Feature", "properties": {"norad_id": 66337, "name": "STARLINK-34783", "group": "last-30-days", "lat": 9.651208107779617, "lon": 39.49613807181066, "alt_km": 442.5154453547975, "timestamp": "2025-12-05T05:43:13.894698+00:00", "meta": {"OBJECT_NAME": "STARLINK-34783", "OBJECT_ID": "2025-253U", "EPOCH": "2025-12-04T16:00:01.998720", "MEAN_MOTION": 15.40623589, "ECCENTRICITY": 0.0001496, "INCLINATION": 43.0004, "RA_OF_ASC_NODE": 32.276, "ARG_OF_PERICENTER": 286.7113, "MEAN_ANOMALY": 153.1997, "EPHEMERIS_TYPE": 0, "CLASSIFICATION_TYPE": "U", "NORAD_CAT_ID": 66337, "ELEMENT_SET_NO": 999, "REV_AT_EPOCH": 568, "BSTAR": 0.00051256, "MEAN_MOTION_DOT": 0.00021113, "MEAN_MOTION_DDOT": 0}, "tle": {"line1": "1 66337U 25253U   25338.66668980  .00021113  00000+0  51256-3 0  9991", "line2": "2 66337  43.0004  32.2760 0001496 286.7113 153.1997 15.40623589  5683"}}, "geometry": {"type": "Point", "coordinates": [39.49613807181066, 9.651208107779617]}}, {"type": "Feature", "properties": {"norad_id": 66338, "name": "STARLINK-35477", "group": "last-30-days", "lat": -14.098724785209107, "lon": 13.426226662106252, "alt_km": 444.3037319688947, "timestamp": "2025-12-05T05:43:13.894709+00:00", "meta": {"OBJECT_NAME": "STARLINK-35477", "OBJECT_ID": "2025-253V", "EPOCH": "2025-12-03T05:35:16.634688", "MEAN_MOTION": 15.40809844, "ECCENTRICITY": 5.96e-05, "INCLINATION": 43.0004, "RA_OF_ASC_NODE": 40.627, "ARG_OF_PERICENTER": 180.5282, "MEAN_ANOMALY": 179.5573, "EPHEMERIS_TYPE": 0, "CLASSIFICATION_TYPE": "U", "NORAD_CAT_ID": 66338, "ELEMENT_SET_NO": 999, "REV_AT_EPOCH": 545, "BSTAR": 0.0022359, "MEAN_MOTION_DOT": 0.00094607, "MEAN_MOTION_DDOT": 0}, "tle": {"line1": "1 66338U 25253V   25337.23283142  .00094607  00000+0  22359-2 0  9996", "line2": "2 66338  43.0004  40.6270 0000596 180.5282 179.5573 15.40809844  5458"}}, "geometry": {"type": "Point", "coordinates": [13.426226662106252, -14.098724785209107]}}, {"type": "Feature", "properties": {"norad_id": 66339, "name": "STARLINK-35443", "group": "last-30-days", "lat": 33.353404975385814, "lon": 163.77036993339294, "alt_km": 439.82176265265207, "timestamp": "2025-12-05T05:43:13.894719+00:00", "meta": {"OBJECT_NAME": "STARLINK-35443", "OBJECT_ID": "2025-253W", "EPOCH": "2025-12-04T18:00:02.000160", "MEAN_MOTION": 15.40671595, "ECCENTRICITY": 0.000203, "INCLINATION": 43.0006, "RA_OF_ASC_NODE": 31.5222, "ARG_OF_PERICENTER": 257.0045, "MEAN_ANOMALY": 37.5137, "EPHEMERIS_TYPE": 0, "CLASSIFICATION_TYPE": "U", "NORAD_CAT_ID": 66339, "ELEMENT_SET_NO": 999, "REV_AT_EPOCH": 569, "BSTAR": -0.00035923, "MEAN_MOTION_DOT": -0.00015266, "MEAN_MOTION_DDOT": 0}, "tle": {"line1": "1 66339U 25253W   25338.75002315 -.00015266  00000+0 -35923-3 0  9994", "line2": "2 66339  43.0006  31.5222 0002030 257.0045  37.5137 15.40671595  5694"}}, "geometry": {"type": "Point", "coordinates": [163.77036993339294, 33.353404975385814]}}, {"type": "Feature", "properties": {"norad_id": 66340, "name": "STARLINK-35218", "group": "last-30-days", "lat": -14.396977613521782, "lon": -135.4826634489685, "alt_km": 415.5538513041165, "timestamp": "2025-12-05T05:43:13.894730+00:00", "meta": {"OBJECT_NAME": "STARLINK-35218", "OBJECT_ID": "2025-253X", "EPOCH": "2025-12-04T13:23:53.795328", "MEAN_MOTION": 15.50615991, "ECCENTRICITY": 0.0001192, "INCLINATION": 42.9998, "RA_OF_ASC_NODE": 32.5068, "ARG_OF_PERICENTER": 274.8538, "MEAN_ANOMALY": 85.2186, "EPHEMERIS_TYPE": 0, "CLASSIFICATION_TYPE": "U", "NORAD_CAT_ID": 66340, "ELEMENT_SET_NO": 999, "REV_AT_EPOCH": 566, "BSTAR": 0.0027172, "MEAN_MOTION_DOT": 0.00162634, "MEAN_MOTION_DDOT": 0}, "tle": {"line1": "1 66340U 25253X   25338.55826152  .00162634  00000+0  27172-2 0  9993", "line2": "2 66340  42.9998  32.5068 0001192 274.8538  85.2186 15.50615991  5665"}}, "geometry": {"type": "Point", "coordinates": [-135.4826634489685, -14.396977613521782]}}, {"type": "Feature", "properties": {"norad_id": 66341, "name": "STARLINK-35522", "group": "last-30-days", "lat": 19.206990378493604, "lon": -173.30147802316142, "alt_km": 443.2579079656589, "timestamp": "2025-12-05T05:43:13.894741+00:00", "meta": {"OBJECT_NAME": "STARLINK-35522", "OBJECT_ID": "2025-253Y", "EPOCH": "2025-12-04T18:00:02.000160", "MEAN_MOTION": 15.42571202, "ECCENTRICITY": 0.0001641, "INCLINATION": 43.0006, "RA_OF_ASC_NODE": 31.469, "ARG_OF_PERICENTER": 288.2071, "MEAN_ANOMALY": 29.821, "EPHEMERIS_TYPE": 0, "CLASSIFICATION_TYPE": "U", "NORAD_CAT_ID": 66341, "ELEMENT_SET_NO": 999, "REV_AT_EPOCH": 574, "BSTAR": -0.053738, "MEAN_MOTION_DOT": -0.02114521, "MEAN_MOTION_DDOT": 0}, "tle": {"line1": "1 66341U 25253Y   25338.75002315 -.02114521  00000+0 -53738-1 0  9995", "line2": "2 66341  43.0006  31.4690 0001641 288.2071  29.8210 15.42571202  5745"}}, "geometry": {"type": "Point", "coordinates": [-173.30147802316142, 19.206990378493604]}}, {"type": "Feature", "properties": {"norad_id": 66342, "name": "STARLINK-35535", "group": "last-30-days", "lat": 41.512823560394295, "lon": 100.60359518305697, "alt_km": 438.64686529929895, "timestamp": "2025-12-05T05:43:13.894752+00:00", "meta": {"OBJECT_NAME": "STARLINK-35535", "OBJECT_ID": "2025-253Z", "EPOCH": "2025-12-04T18:00:02.000160", "MEAN_MOTION": 15.40608656, "ECCENTRICITY": 0.0001674, "INCLINATION": 43.0004, "RA_OF_ASC_NODE": 31.6423, "ARG_OF_PERICENTER": 253.5187, "MEAN_ANOMALY": 351.2953, "EPHEMERIS_TYPE": 0, "CLASSIFICATION_TYPE": "U", "NORAD_CAT_ID": 66342, "ELEMENT_SET_NO": 999, "REV_AT_EPOCH": 564, "BSTAR": 0.0016707, "MEAN_MOTION_DOT": 0.00069915, "MEAN_MOTION_DDOT": 0}, "tle": {"line1": "1 66342U 25253Z   25338.75002315  .00069915  00000+0  16707-2 0  9994", "line2": "2 66342  43.0004  31.6423 0001674 253.5187 351.2953 15.40608656  5646"}}, "geometry": {"type": "Point", "coordinates": [100.60359518305697, 41.512823560394295]}}, {"type": "Feature", "properties": {"norad_id": 66343, "name": "STARLINK-35467", "group": "last-30-days", "lat": 25.465285962312905, "lon": 59.652122178717974, "alt_km": 440.83461042809085, "timestamp": "2025-12-05T05:43:13.894763+00:00", "meta": {"OBJECT_NAME": "STARLINK-35467", "OBJECT_ID": "2025-253AA", "EPOCH": "2025-12-04T18:00:02.000160", "MEAN_MOTION": 15.4060745, "ECCENTRICITY": 0.0001402, "INCLINATION": 43.0005, "RA_OF_ASC_NODE": 31.7328, "ARG_OF_PERICENTER": 252.5197, "MEAN_ANOMALY": 314.9745, "EPHEMERIS_TYPE": 0, "CLASSIFICATION_TYPE": "U", "NORAD_CAT_ID": 66343, "ELEMENT_SET_NO": 999, "REV_AT_EPOCH": 564, "BSTAR": 0.0016967, "MEAN_MOTION_DOT": 0.00071013, "MEAN_MOTION_DDOT": 0}, "tle": {"line1": "1 66343U 25253AA  25338.75002315  .00071013  00000+0  16967-2 0  9995", "line2": "2 66343  43.0005  31.7328 0001402 252.5197 314.9745 15.40607450  5648"}}, "geometry": {"type": "Point", "coordinates": [59.652122178717974, 25.465285962312905]}}, {"type": "Feature", "properties": {"norad_id": 66344, "name": "STARLINK-35511", "group": "last-30-days", "lat": -25.033022032691964, "lon": -121.44226868040491, "alt_km": 416.82648344359586, "timestamp": "2025-12-05T05:43:13.894791+00:00", "meta": {"OBJECT_NAME": "STARLINK-35511", "OBJECT_ID": "2025-253AB", "EPOCH": "2025-12-04T10:13:55.829568", "MEAN_MOTION": 15.50597049, "ECCENTRICITY": 0.0001448, "INCLINATION": 43.0011, "RA_OF_ASC_NODE": 33.2328, "ARG_OF_PERICENTER": 274.0444, "MEAN_ANOMALY": 86.0251, "EPHEMERIS_TYPE": 0, "CLASSIFICATION_TYPE": "U", "NORAD_CAT_ID": 66344, "ELEMENT_SET_NO": 999, "REV_AT_EPOCH": 564, "BSTAR": 0.00014218, "MEAN_MOTION_DOT": 8.013e-05, "MEAN_MOTION_DDOT": 0}, "tle": {"line1": "1 66344U 25253AB  25338.42634062  .00008013  00000+0  14218-3 0  9998", "line2": "2 66344  43.0011  33.2328 0001448 274.0444  86.0251 15.50597049  5649"}}, "geometry": {"type": "Point", "coordinates": [-121.44226868040491, -25.033022032691964]}}, {"type": "Feature", "properties": {"norad_id": 66345, "name": "STARLINK-35440", "group": "last-30-days", "lat": 11.140684863431694, "lon": -163.58488409007919, "alt_km": 442.95580257292204, "timestamp": "2025-12-05T05:43:13.894802+00:00", "meta": {"OBJECT_NAME": "STARLINK-35440", "OBJECT_ID": "2025-253AC", "EPOCH": "2025-12-04T18:00:02.000160", "MEAN_MOTION": 15.40942767, "ECCENTRICITY": 9.95e-05, "INCLINATION": 43.0007, "RA_OF_ASC_NODE": 31.4299, "ARG_OF_PERICENTER": 251.7191, "MEAN_ANOMALY": 79.9758, "EPHEMERIS_TYPE": 0, "CLASSIFICATION_TYPE": "U", "NORAD_CAT_ID": 66345, "ELEMENT_SET_NO": 999, "REV_AT_EPOCH": 564, "BSTAR": -0.011614, "MEAN_MOTION_DOT": -0.00460957, "MEAN_MOTION_DDOT": 0}, "tle": {"line1": "1 66345U 25253AC  25338.75002315 -.00460957  00000+0 -11614-1 0  9991", "line2": "2 66345  43.0007  31.4299 0000995 251.7191  79.9758 15.40942767  5642"}}, "geometry": {"type": "Point", "coordinates": [-163.58488409007919, 11.140684863431694]}}, {"type": "Feature", "properties": {"norad_id": 66346, "name": "STARLINK-35482", "group": "last-30-days", "lat": -16.779684475746194, "lon": -132.60549031026042, "alt_km": 431.8692999370196, "timestamp": "2025-12-05T05:43:13.894813+00:00", "meta": {"OBJECT_NAME": "STARLINK-35482", "OBJECT_ID": "2025-253AD", "EPOCH": "2025-12-04T18:00:02.000160", "MEAN_MOTION": 15.47497865, "ECCENTRICITY": 0.0001662, "INCLINATION": 43.0007, "RA_OF_ASC_NODE": 31.3541, "ARG_OF_PERICENTER": 274.5439, "MEAN_ANOMALY": 88.6754, "EPHEMERIS_TYPE": 0, "CLASSIFICATION_TYPE": "U", "NORAD_CAT_ID": 66346, "ELEMENT_SET_NO": 999, "REV_AT_EPOCH": 574, "BSTAR": -0.044734, "MEAN_MOTION_DOT": -0.02090047, "MEAN_MOTION_DDOT": 0}, "tle": {"line1": "1 66346U 25253AD  25338.75002315 -.02090047  00000+0 -44734-1 0  9992", "line2": "2 66346  43.0007  31.3541 0001662 274.5439  88.6754 15.47497865  5747"}}, "geometry": {"type": "Point", "coordinates": [-132.60549031026042, -16.779684475746194]}}]}